NORAD_CAT_ID,OBJECT_NAME,OBJECT_TYPE,EPOCH,MEAN_MOTION,ECCENTRICITY,INCLINATION,RA_OF_ASC_NODE,ARG_OF_PERICENTER,MEAN_ANOMALY,BSTAR,MEAN_MOTION_DOT,MEAN_MOTION_DDOT,TLE_LINE0,TLE_LINE1,TLE_LINE2,SEMIMAJOR_AXIS,PERIOD,APOGEE,PERIGEE,DECAYED
54003.0,STARLINK-5114,PAYLOAD,2023-08-02 01:36:33,15.08839614,0.0001291,53.2166,161.4298,94.5827,265.5312,4.1661e-05,3.75e-06,0.0,0 STARLINK-5114,1 54003U 22125AR  23214.06705448  .00000375  00000-0  41661-4 0  9997,2 54003  53.2166 161.4298 0001291  94.5827 265.5312 15.08839614 46005,6917.882,95.438,540.64,538.853,0.0
54003.0,STARLINK-5114,PAYLOAD,2023-08-03 01:27:21,15.08818602,0.0001184,53.2172,156.9705,107.7387,252.3735,0.00028944,4.319e-05,0.0,0 STARLINK-5114,1 54003U 22125AR  23215.06066265  .00004319  00000-0  28944-3 0  9995,2 54003  53.2172 156.9705 0001184 107.7387 252.3735 15.08818602 46156,6917.946,95.439,540.63,538.992,0.0
54003.0,STARLINK-5114,PAYLOAD,2023-08-03 06:13:29,15.08841761,0.000136,53.2171,156.0768,110.2983,249.8156,3.9031e-05,3.33e-06,0.0,0 STARLINK-5114,1 54003U 22125AR  23215.25937376  .00000333  00000-0  39031-4 0  9998,2 54003  53.2171 156.0768 0001360 110.2983 249.8156 15.08841761 46185,6917.875,95.437,540.681,538.799,0.0
54003.0,STARLINK-5114,PAYLOAD,2023-08-04 01:18:08,15.08836292,0.0001153,53.2161,152.5046,108.8662,251.2455,-1.618e-05,-5.45e-06,0.0,0 STARLINK-5114,1 54003U 22125AR  23216.05426176 -.00000545  00000-0 -16180-4 0  9995,2 54003  53.2161 152.5046 0001153 108.8662 251.2455 15.08836292 46307,6917.892,95.438,540.554,538.959,0.0
54003.0,STARLINK-5114,PAYLOAD,2023-08-05 01:08:54,15.08842269,0.0001409,53.2169,148.0449,119.94,240.1732,7.0546e-05,8.35e-06,0.0,0 STARLINK-5114,1 54003U 22125AR  23217.04785762  .00000835  00000-0  70546-4 0  9990,2 54003  53.2169 148.0449 0001409 119.9400 240.1732 15.08842269 46451,6917.873,95.437,540.713,538.764,0.0
54003.0,STARLINK-5114,PAYLOAD,2023-08-06 02:35:04,15.08851958,0.0001074,53.2165,143.2906,105.4401,254.671,0.00019504,2.819e-05,0.0,0 STARLINK-5114,1 54003U 22125AR  23218.10768754  .00002819  00000-0  19504-3 0  9990,2 54003  53.2165 143.2906 0001074 105.4401 254.6710 15.08851958 46610,6917.844,95.437,540.452,538.966,0.0
54003.0,STARLINK-5114,PAYLOAD,2023-08-06 18:28:57,15.08823595,0.0001327,53.2166,140.3185,80.6056,279.5086,-4.3755e-05,-9.84e-06,0.0,0 STARLINK-5114,1 54003U 22125AR  23218.77011379 -.00000984  00000-0 -43755-4 0  9996,2 54003  53.2166 140.3185 0001327  80.6056 279.5086 15.08823595 46718,6917.931,95.439,540.714,538.878,0.0
54003.0,STARLINK-5114,PAYLOAD,2023-08-07 11:58:11,15.08834941,0.000111,53.2161,137.0471,82.0238,278.088,-2.7595e-05,-7.27e-06,0.0,0 STARLINK-5114,1 54003U 22125AR  23219.49874548 -.00000727  00000-0 -27595-4 0  9990,2 54003  53.2161 137.0471 0001110  82.0238 278.0880 15.08834941 46827,6917.896,95.438,540.529,538.993,0.0
54003.0,STARLINK-5114,PAYLOAD,2023-08-08 00:41:16,15.08849463,0.0001026,53.2158,134.6678,77.1066,283.0041,0.00019205,2.771e-05,0.0,0 STARLINK-5114,1 54003U 22125AR  23220.02865898  .00002771  00000-0  19205-3 0  9996,2 54003  53.2158 134.6678 0001026  77.1066 283.0041 15.08849463 46904,6917.851,95.437,540.426,539.007,0.0
54003.0,STARLINK-5114,PAYLOAD,2023-08-08 18:10:31,15.08844374,0.0001229,53.2158,131.3981,75.1148,284.998,0.00052925,8.146e-05,0.0,0 STARLINK-5114,1 54003U 22125AR  23220.75730617  .00008146  00000-0  52925-3 0  9994,2 54003  53.2158 131.3981 0001229  75.1148 284.9980 15.08844374 47010,6917.867,95.437,540.582,538.882,0.0
54003.0,STARLINK-5114,PAYLOAD,2023-08-09 03:42:49,15.08862242,0.000122,53.2156,129.6132,76.9616,283.1513,0.00054828,8.454e-05,0.0,0 STARLINK-5114,1 54003U 22125AR  23221.15473714  .00008454  00000-0  54828-3 0  9997,2 54003  53.2156 129.6132 0001220  76.9616 283.1513 15.08862242 47079,6917.812,95.436,540.521,538.833,0.0
54003.0,STARLINK-5114,PAYLOAD,2023-08-10 03:33:36,15.0884625,0.0001014,53.2153,125.1516,97.5995,262.5112,0.00014905,2.086e-05,0.0,0 STARLINK-5114,1 54003U 22125AR  23222.14833900  .00002086  00000-0  14905-3 0  9991,2 54003  53.2153 125.1516 0001014  97.5995 262.5112 15.08846250 47227,6917.861,95.437,540.428,539.025,0.0
54003.0,STARLINK-5114,PAYLOAD,2023-08-10 17:52:04,15.08839957,0.0001156,53.2167,122.4748,93.8145,266.2979,0.00011145,1.486e-05,0.0,0 STARLINK-5114,1 54003U 22125AR  23222.74450218  .00001486  00000-0  11145-3 0  9990,2 54003  53.2167 122.4748 0001156  93.8145 266.2979 15.08839957 47310,6917.881,95.438,540.545,538.946,0.0
54003.0,STARLINK-5114,PAYLOAD,2023-08-11 17:42:52,15.08835379,0.0001256,53.2171,118.0145,94.2084,265.9052,7.0677e-05,8.37e-06,0.0,0 STARLINK-5114,1 54003U 22125AR  23223.73810656  .00000837  00000-0  70677-4 0  9991,2 54003  53.2171 118.0145 0001256  94.2084 265.9052 15.08835379 47463,6917.895,95.438,540.628,538.891,0.0
54003.0,STARLINK-5114,PAYLOAD,2023-08-13 01:30:34,15.08847972,0.0001155,53.2165,112.069,98.3733,261.739,0.00024848,3.67e-05,0.0,0 STARLINK-5114,1 54003U 22125AR  23225.06290359  .00003670  00000-0  24848-3 0  9997,2 54003  53.2165 112.0690 0001155  98.3733 261.7390 15.08847972 47662,6917.856,95.437,540.52,538.922,0.0
54003.0,STARLINK-5114,PAYLOAD,2023-08-14 01:21:22,15.08843307,0.0001195,53.2166,107.609,93.2235,266.8894,0.00016176,2.288e-05,0.0,0 STARLINK-5114,1 54003U 22125AR  23226.05650835  .00002288  00000-0  16176-3 0  9995,2 54003  53.2166 107.6090 0001195  93.2235 266.8894 15.08843307 47812,6917.87,95.437,540.562,538.909,0.0
54003.0,STARLINK-5114,PAYLOAD,2023-08-14 18:50:37,15.08836816,0.0001204,53.2163,104.3374,89.6858,270.4272,7.2422e-05,8.65e-06,0.0,0 STARLINK-5114,1 54003U 22125AR  23226.78515236  .00000865  00000-0  72422-4 0  9996,2 54003  53.2163 104.3374 0001204  89.6858 270.4272 15.08836816 47929,6917.89,95.438,540.588,538.922,0.0
54003.0,STARLINK-5114,PAYLOAD,2023-08-15 01:12:09,15.08844597,0.0001274,53.2161,103.1488,83.0843,277.0294,0.00022479,3.292e-05,0.0,0 STARLINK-5114,1 54003U 22125AR  23227.05011030  .00003292  00000-0  22479-3 0  9993,2 54003  53.2161 103.1488 0001274  83.0843 277.0294 15.08844597 47965,6917.866,95.437,540.613,538.85,0.0
54003.0,STARLINK-5114,PAYLOAD,2023-08-16 23:18:20,15.08842501,0.0001602,53.2178,94.5225,95.1364,264.9811,9.0169e-05,1.147e-05,0.0,0 STARLINK-5114,1 54003U 22125AR  23228.97106575  .00001147  00000-0  90169-4 0  9993,2 54003  53.2178  94.5225 0001602  95.1364 264.9811 15.08842501 48258,6917.873,95.437,540.846,538.63,0.0
54003.0,STARLINK-5114,PAYLOAD,2023-08-17 15:12:11,15.08839542,0.0001696,53.2178,91.5487,100.0058,260.1126,0.00039765,6.046e-05,0.0,0 STARLINK-5114,1 54003U 22125AR  23229.63347193  .00006046  00000-0  39765-3 0  9997,2 54003  53.2178  91.5487 0001696 100.0058 260.1126 15.08839542 48353,6917.882,95.438,540.92,538.574,0.0
54003.0,STARLINK-5114,PAYLOAD,2023-08-18 00:44:30,15.08851509,0.0001465,53.2173,89.766,95.0177,265.0983,0.00023356,3.432e-05,0.0,0 STARLINK-5114,1 54003U 22125AR  23230.03090530  .00003432  00000-0  23356-3 0  9998,2 54003  53.2173  89.7660 0001465  95.0177 265.0983 15.08851509 48418,6917.845,95.437,540.724,538.697,0.0
54003.0,STARLINK-5114,PAYLOAD,2023-08-18 16:38:22,15.08835914,0.00017,53.2176,86.7929,99.0925,261.0259,3.9723e-05,3.44e-06,0.0,0 STARLINK-5114,1 54003U 22125AR  23230.69331329  .00000344  00000-0  39723-4 0  9999,2 54003  53.2176  86.7929 0001700  99.0925 261.0259 15.08835914 48518,6917.893,95.438,540.934,538.582,0.0
54003.0,STARLINK-5114,PAYLOAD,2023-08-20 00:26:05,15.08842345,0.0001529,53.215,80.8447,90.148,269.9687,0.00019357,2.794e-05,0.0,0 STARLINK-5114,1 54003U 22125AR  23232.01811498  .00002794  00000-0  19357-3 0  9998,2 54003  53.2150  80.8447 0001529  90.1480 269.9687 15.08842345 48717,6917.873,95.437,540.796,538.68,0.0
54003.0,STARLINK-5114,PAYLOAD,2023-08-20 17:55:19,15.08839605,0.0001494,53.2152,77.5744,81.7636,278.3525,0.00015726,2.216e-05,0.0,0 STARLINK-5114,1 54003U 22125AR  23232.74675716  .00002216  00000-0  15726-3 0  9994,2 54003  53.2152  77.5744 0001494  81.7636 278.3525 15.08839605 48824,6917.882,95.438,540.78,538.713,0.0
54003.0,STARLINK-5114,PAYLOAD,2023-08-21 00:16:51,15.08851008,0.0001234,53.2159,76.3836,88.3099,271.8035,0.00030446,4.562e-05,0.0,0 STARLINK-5114,1 54003U 22125AR  23233.01171121  .00004562  00000-0  30446-3 0  9998,2 54003  53.2159  76.3836 0001234  88.3099 271.8035 15.08851008 48867,6917.847,95.437,540.565,538.858,0.0
54003.0,STARLINK-5114,PAYLOAD,2023-08-21 06:38:24,15.08838601,0.0001159,53.216,75.1957,89.7247,270.3877,4.7608e-05,4.7e-06,0.0,0 STARLINK-5114,1 54003U 22125AR  23233.27667507  .00000470  00000-0  47608-4 0  9997,2 54003  53.2160  75.1957 0001159  89.7247 270.3877 15.08838601 48903,6917.885,95.438,540.551,538.948,0.0
54003.0,STARLINK-5114,PAYLOAD,2023-08-22 22:23:03,15.08835396,0.0001443,53.2171,67.7604,83.5432,276.5725,3.9732e-05,3.44e-06,0.0,0 STARLINK-5114,1 54003U 22125AR  23234.93268166  .00000344  00000-0  39732-4 0  9998,2 54003  53.2171  67.7604 0001443  83.5432 276.5725 15.08835396 49151,6917.894,95.438,540.758,538.761,0.0
54003.0,STARLINK-5114,PAYLOAD,2023-08-24 12:32:18,15.08844375,0.0001488,53.2175,60.6248,90.6044,269.5119,0.00017952,2.571e-05,0.0,0 STARLINK-5114,1 54003U 22125AR  23236.52244009  .00002571  00000-0  17952-3 0  9998,2 54003  53.2175  60.6248 0001488  90.6044 269.5119 15.08844375 49390,6917.867,95.437,540.761,538.703,0.0
54003.0,STARLINK-5114,PAYLOAD,2023-08-24 22:04:37,15.08845789,0.000146,53.2179,58.8405,91.9792,268.1367,0.00018023,2.582e-05,0.0,0 STARLINK-5114,1 54003U 22125AR  23236.91987891  .00002582  00000-0  18023-3 0  9996,2 54003  53.2179  58.8405 0001460  91.9792 268.1367 15.08845789 49404,6917.863,95.437,540.738,538.718,0.0
54003.0,STARLINK-5114,PAYLOAD,2023-08-25 18:44:38,15.08846685,0.0001728,53.2191,54.9776,92.7438,267.3752,0.00012198,1.654e-05,0.0,0 STARLINK-5114,1 54003U 22125AR  23237.78099755  .00001654  00000-0  12198-3 0  9991,2 54003  53.2191  54.9776 0001728  92.7438 267.3752 15.08846685 49583,6917.86,95.437,540.92,538.53,0.0
